[{"OBJECT_NAME":"STARLINK-37190","OBJECT_ID":"2026-063S","EPOCH":"2026-04-02T18:00:01.999296","MEAN_MOTION":16.00006807,"ECCENTRICITY":0.0001496,"INCLINATION":97.2814,"RA_OF_ASC_NODE":233.5533,"ARG_OF_PERICENTER":73.3323,"MEAN_ANOMALY":103.5772,"EPHEMERIS_TYPE":0,"CLASSIFICATION_TYPE":"U","NORAD_CAT_ID":68396,"ELEMENT_SET_NO":999,"REV_AT_EPOCH":232,"BSTAR":-0.0036843,"MEAN_MOTION_DOT":-0.01849746,"MEAN_MOTION_DDOT":0.0010274},{"OBJECT_NAME":"STARLINK-37194","OBJECT_ID":"2026-063T","EPOCH":"2026-04-02T18:00:01.999296","MEAN_MOTION":16.00255178,"ECCENTRICITY":0.0001611,"INCLINATION":97.2815,"RA_OF_ASC_NODE":233.5554,"ARG_OF_PERICENTER":65.7478,"MEAN_ANOMALY":116.0867,"EPHEMERIS_TYPE":0,"CLASSIFICATION_TYPE":"U","NORAD_CAT_ID":68397,"ELEMENT_SET_NO":999,"REV_AT_EPOCH":232,"BSTAR":-0.0035726,"MEAN_MOTION_DOT":-0.0181941,"MEAN_MOTION_DDOT":0.00099872},{"OBJECT_NAME":"STARLINK-37220","OBJECT_ID":"2026-063U","EPOCH":"2026-04-02T18:00:01.999296","MEAN_MOTION":16.00790582,"ECCENTRICITY":0.0002091,"INCLINATION":97.2815,"RA_OF_ASC_NODE":233.5577,"ARG_OF_PERICENTER":66.0397,"MEAN_ANOMALY":120.4043,"EPHEMERIS_TYPE":0,"CLASSIFICATION_TYPE":"U","NORAD_CAT_ID":68398,"ELEMENT_SET_NO":999,"REV_AT_EPOCH":232,"BSTAR":-0.0043589,"MEAN_MOTION_DOT":-0.0228389,"MEAN_MOTION_DDOT":0.0015546},{"OBJECT_NAME":"STARLINK-37187","OBJECT_ID":"2026-063V","EPOCH":"2026-04-02T18:00:01.999296","MEAN_MOTION":16.00392506,"ECCENTRICITY":0.0001626,"INCLINATION":97.2813,"RA_OF_ASC_NODE":233.5566,"ARG_OF_PERICENTER":66.9644,"MEAN_ANOMALY":117.1108,"EPHEMERIS_TYPE":0,"CLASSIFICATION_TYPE":"U","NORAD_CAT_ID":68399,"ELEMENT_SET_NO":999,"REV_AT_EPOCH":232,"BSTAR":-0.0035747,"MEAN_MOTION_DOT":-0.01834573,"MEAN_MOTION_DDOT":0.0010161},{"OBJECT_NAME":"STARLINK-36235","OBJECT_ID":"2026-063W","EPOCH":"2026-04-02T18:00:01.999296","MEAN_MOTION":16.00671292,"ECCENTRICITY":0.0001536,"INCLINATION":97.281,"RA_OF_ASC_NODE":233.5586,"ARG_OF_PERICENTER":80.5141,"MEAN_ANOMALY":108.5827,"EPHEMERIS_TYPE":0,"CLASSIFICATION_TYPE":"U","NORAD_CAT_ID":68400,"ELEMENT_SET_NO":999,"REV_AT_EPOCH":232,"BSTAR":-0.0035611,"MEAN_MOTION_DOT":-0.01856481,"MEAN_MOTION_DDOT":0.0010425},{"OBJECT_NAME":"STARLINK-37175","OBJECT_ID":"2026-063X","EPOCH":"2026-04-02T18:00:01.999296","MEAN_MOTION":16.0080327,"ECCENTRICITY":0.0001605,"INCLINATION":97.2812,"RA_OF_ASC_NODE":233.5601,"ARG_OF_PERICENTER":70.4024,"MEAN_ANOMALY":121.2648,"EPHEMERIS_TYPE":0,"CLASSIFICATION_TYPE":"U","NORAD_CAT_ID":68401,"ELEMENT_SET_NO":999,"REV_AT_EPOCH":232,"BSTAR":-0.003538,"MEAN_MOTION_DOT":-0.01858405,"MEAN_MOTION_DDOT":0.0010462},{"OBJECT_NAME":"STARLINK-36360","OBJECT_ID":"2026-063Y","EPOCH":"2026-04-02T18:00:01.999296","MEAN_MOTION":16.00951512,"ECCENTRICITY":0.0001494,"INCLINATION":97.2811,"RA_OF_ASC_NODE":233.5611,"ARG_OF_PERICENTER":76.7215,"MEAN_ANOMALY":117.4227,"EPHEMERIS_TYPE":0,"CLASSIFICATION_TYPE":"U","NORAD_CAT_ID":68402,"ELEMENT_SET_NO":999,"REV_AT_EPOCH":232,"BSTAR":-0.0035609,"MEAN_MOTION_DOT":-0.01885974,"MEAN_MOTION_DDOT":0.0010776},{"OBJECT_NAME":"STARLINK-37218","OBJECT_ID":"2026-063Z","EPOCH":"2026-04-02T18:00:01.999296","MEAN_MOTION":16.01196804,"ECCENTRICITY":0.0001616,"INCLINATION":97.2814,"RA_OF_ASC_NODE":233.5637,"ARG_OF_PERICENTER":71.1878,"MEAN_ANOMALY":127.388,"EPHEMERIS_TYPE":0,"CLASSIFICATION_TYPE":"U","NORAD_CAT_ID":68403,"ELEMENT_SET_NO":999,"REV_AT_EPOCH":232,"BSTAR":-0.0034726,"MEAN_MOTION_DOT":-0.01865503,"MEAN_MOTION_DDOT":0.0010587},{"OBJECT_NAME":"STARLINK-37188","OBJECT_ID":"2026-063AA","EPOCH":"2026-04-02T18:00:01.999296","MEAN_MOTION":16.01065014,"ECCENTRICITY":0.00016,"INCLINATION":97.2811,"RA_OF_ASC_NODE":233.5623,"ARG_OF_PERICENTER":68.4936,"MEAN_ANOMALY":127.6824,"EPHEMERIS_TYPE":0,"CLASSIFICATION_TYPE":"U","NORAD_CAT_ID":68404,"ELEMENT_SET_NO":999,"REV_AT_EPOCH":232,"BSTAR":-0.0034952,"MEAN_MOTION_DOT":-0.01863513,"MEAN_MOTION_DDOT":0.0010549},{"OBJECT_NAME":"SHIYAN-33","OBJECT_ID":"2026-064A","EPOCH":"2026-04-02T17:19:19.790976","MEAN_MOTION":15.23194759,"ECCENTRICITY":0.0013547,"INCLINATION":97.4658,"RA_OF_ASC_NODE":168.6373,"ARG_OF_PERICENTER":205.6558,"MEAN_ANOMALY":154.4008,"EPHEMERIS_TYPE":0,"CLASSIFICATION_TYPE":"U","NORAD_CAT_ID":68405,"ELEMENT_SET_NO":999,"REV_AT_EPOCH":100,"BSTAR":0.00031927,"MEAN_MOTION_DOT":7.499e-5,"MEAN_MOTION_DDOT":0},{"OBJECT_NAME":"LPNTSAT-001 (IOD-1)","OBJECT_ID":"2026-065A","EPOCH":"2026-04-01T04:04:57.158400","MEAN_MOTION":15.18233471,"ECCENTRICITY":0.0015408,"INCLINATION":97.4137,"RA_OF_ASC_NODE":333.2788,"ARG_OF_PERICENTER":273.4606,"MEAN_ANOMALY":86.4866,"EPHEMERIS_TYPE":0,"CLASSIFICATION_TYPE":"U","NORAD_CAT_ID":68408,"ELEMENT_SET_NO":999,"REV_AT_EPOCH":57,"BSTAR":0.00023469,"MEAN_MOTION_DOT":4.75e-5,"MEAN_MOTION_DDOT":0},{"OBJECT_NAME":"LPNTSAT-002 (IOD-2)","OBJECT_ID":"2026-065B","EPOCH":"2026-03-30T22:01:49.710144","MEAN_MOTION":15.18186279,"ECCENTRICITY":0.00125114,"INCLINATION":97.4122,"RA_OF_ASC_NODE":332.0512,"ARG_OF_PERICENTER":274.1697,"MEAN_ANOMALY":85.8107,"EPHEMERIS_TYPE":0,"CLASSIFICATION_TYPE":"U","NORAD_CAT_ID":68409,"ELEMENT_SET_NO":999,"REV_AT_EPOCH":36,"BSTAR":8.4452084e-5,"MEAN_MOTION_DOT":1.661e-5,"MEAN_MOTION_DDOT":0},{"OBJECT_NAME":"ELECTRON R/B","OBJECT_ID":"2026-065C","EPOCH":"2026-03-29T17:50:42.810720","MEAN_MOTION":15.83047135,"ECCENTRICITY":0.02280831,"INCLINATION":97.3942,"RA_OF_ASC_NODE":331.0573,"ARG_OF_PERICENTER":205.9229,"MEAN_ANOMALY":153.0475,"EPHEMERIS_TYPE":0,"CLASSIFICATION_TYPE":"U","NORAD_CAT_ID":68410,"ELEMENT_SET_NO":999,"REV_AT_EPOCH":15,"BSTAR":0.00025022275,"MEAN_MOTION_DOT":0.00479178,"MEAN_MOTION_DDOT":2.264235e-6},{"OBJECT_NAME":"ELECTRON KICK STAGE R/B","OBJECT_ID":"2026-065D","EPOCH":"2026-03-30T16:54:54.803808","MEAN_MOTION":15.75328689,"ECCENTRICITY":0.02045106,"INCLINATION":97.4169,"RA_OF_ASC_NODE":332.0388,"ARG_OF_PERICENTER":25.2779,"MEAN_ANOMALY":335.8323,"EPHEMERIS_TYPE":0,"CLASSIFICATION_TYPE":"U","NORAD_CAT_ID":68411,"ELEMENT_SET_NO":999,"REV_AT_EPOCH":37,"BSTAR":0.00032519468,"MEAN_MOTION_DOT":0.00204615,"MEAN_MOTION_DDOT":2.15409e-6},{"OBJECT_NAME":"XINZHENGCHENG-01","OBJECT_ID":"2026-066A","EPOCH":"2026-04-02T19:06:08.580960","MEAN_MOTION":14.88436835,"ECCENTRICITY":0.0026927,"INCLINATION":84.9614,"RA_OF_ASC_NODE":275.7169,"ARG_OF_PERICENTER":151.8303,"MEAN_ANOMALY":208.4384,"EPHEMERIS_TYPE":0,"CLASSIFICATION_TYPE":"U","NORAD_CAT_ID":68412,"ELEMENT_SET_NO":999,"REV_AT_EPOCH":51,"BSTAR":0.00011258,"MEAN_MOTION_DOT":1.081e-5,"MEAN_MOTION_DDOT":0},{"OBJECT_NAME":"LIJIAN-2 R/B","OBJECT_ID":"2026-066B","EPOCH":"2026-03-31T18:24:33.055200","MEAN_MOTION":15.04815352,"ECCENTRICITY":0.06052317,"INCLINATION":84.7161,"RA_OF_ASC_NODE":277.02,"ARG_OF_PERICENTER":206.6432,"MEAN_ANOMALY":150.2503,"EPHEMERIS_TYPE":0,"CLASSIFICATION_TYPE":"U","NORAD_CAT_ID":68413,"ELEMENT_SET_NO":999,"REV_AT_EPOCH":20,"BSTAR":0.00021174642,"MEAN_MOTION_DOT":0.02524605,"MEAN_MOTION_DDOT":-1.158743e-6},{"OBJECT_NAME":"SL-4 R/B","OBJECT_ID":"2026-061S","EPOCH":"2026-04-02T17:28:12.205920","MEAN_MOTION":15.91364575,"ECCENTRICITY":0.0025737,"INCLINATION":82.3048,"RA_OF_ASC_NODE":97.3586,"ARG_OF_PERICENTER":33.2303,"MEAN_ANOMALY":327.0579,"EPHEMERIS_TYPE":0,"CLASSIFICATION_TYPE":"U","NORAD_CAT_ID":68537,"ELEMENT_SET_NO":999,"REV_AT_EPOCH":159,"BSTAR":0.00079138,"MEAN_MOTION_DOT":0.00260162,"MEAN_MOTION_DDOT":2.3623e-5}]
